ZHONGXING-1D            
1 49505U 21114A   26095.55684507 -.00000335  00000+0  00000+0 0  9994
2 49505   0.0375 305.9768 0001632 273.0949 305.4053  1.00270580 16093
STPSAT-6                
1 49817U 21118A   26095.50891821 -.00000043  00000+0  00000+0 0  9994
2 49817   0.1340  84.2980 0002187 253.7531 287.0962  1.00272504 15847
EXPRESS AMU-7           
1 50001U 21123A   26093.34926137 -.00000245  00000+0  00000+0 0  9990
2 50001   0.0145 249.0261 0000125 119.3954  93.9924  1.00272584 15799
EXPRESS AMU-3           
1 50002U 21123B   26095.17638229 -.00000320  00000+0  00000+0 0  9990
2 50002   0.0168 241.8049 0000519  27.0920  91.0908  1.00271930  6306
TIANLIAN 2-02           
1 50005U 21124A   26095.56494685 -.00000012  00000+0  00000+0 0  9991
2 50005   0.6139  87.2959 0003495 221.9078 259.0020  1.00273156 15897
TURKSAT 5B              
1 50212U 21126A   26095.61571476  .00000148  00000+0  00000+0 0  9992
2 50212   0.0795 330.9058 0005071  11.0761 115.5839  1.00271914 15575
INMARSAT 6-F1           
1 50319U 21128A   26095.60220015 -.00000170  00000+0  00000+0 0  9997
2 50319   0.0168 223.0582 0000220 219.0804  52.3047  1.00270953 15537
SHIYAN-12 01 (SY-12 01) 
1 50321U 21129A   26093.71193987 -.00000356  00000+0  00000+0 0  9994
2 50321   3.4828  80.9059 0003410 263.7414 222.3716  1.00080844 15750
SHIYAN-12 02 (SY-12 02) 
1 50322U 21129B   26093.68361286  .00000154  00000+0  00000+0 0  9995
2 50322   3.4829  80.9202 0000467  11.8860  18.2553  1.00462099 15755
TJS-9                   
1 50574U 21135A   26095.55823175 -.00000297  00000+0  00000+0 0  9998
2 50574   0.0656 279.1082 0003952 148.2822 104.6692  1.00272624 15700
GOES 18                 
1 51850U 22021A   26095.53184713  .00000098  00000+0  00000+0 0  9995
2 51850   0.0483  40.0599 0000637  35.3456 172.8934  1.00270314  5866
ZHONGXING-6D            
1 52255U 22038A   26092.12351987 -.00000361  00000+0  00000+0 0  9998
2 52255   0.0419 250.5407 0001977  80.9664  28.4685  1.00268552 14664
NILESAT 301             
1 52817U 22061A   26095.24447655 -.00000057  00000+0  00000+0 0  9994
2 52817   0.0629  15.7842 0006045 355.0700 263.7154  1.00271416 14009
CMS-02 (GSAT 24)        
1 52903U 22067A   26095.55685844 -.00000163  00000+0  00000+0 0  9992
2 52903   0.0499  94.5678 0001870 238.4519 144.3006  1.00272866 13880
MEASAT 3D               
1 52904U 22067B   26095.58946944 -.00000240  00000+0  00000+0 0  9993
2 52904   0.0428 329.3922 0002752  24.9188 143.2827  1.00273334 13929
SES-22                  
1 52933U 22071A   26095.53100330  .00000000  00000+0  00000+0 0  9999
2 52933   0.0152 222.3561 0001259 164.3417 219.2774  1.00270558  6798
