[{"OBJECT_NAME":"ZHONGXING-1D","OBJECT_ID":"2021-114A","EPOCH":"2026-04-05T13:21:51.414048","MEAN_MOTION":1.0027058,"ECCENTRICITY":0.0001632,"INCLINATION":0.0375,"RA_OF_ASC_NODE":305.9768,"ARG_OF_PERICENTER":273.0949,"MEAN_ANOMALY":305.4053,"EPHEMERIS_TYPE":0,"CLASSIFICATION_TYPE":"U","NORAD_CAT_ID":49505,"ELEMENT_SET_NO":999,"REV_AT_EPOCH":1609,"BSTAR":0,"MEAN_MOTION_DOT":-3.35e-6,"MEAN_MOTION_DDOT":0},{"OBJECT_NAME":"STPSAT-6","OBJECT_ID":"2021-118A","EPOCH":"2026-04-05T12:12:50.533344","MEAN_MOTION":1.00272504,"ECCENTRICITY":0.00021875,"INCLINATION":0.134,"RA_OF_ASC_NODE":84.298,"ARG_OF_PERICENTER":253.7531,"MEAN_ANOMALY":287.0962,"EPHEMERIS_TYPE":0,"CLASSIFICATION_TYPE":"U","NORAD_CAT_ID":49817,"ELEMENT_SET_NO":999,"REV_AT_EPOCH":1584,"BSTAR":0,"MEAN_MOTION_DOT":-4.3e-7,"MEAN_MOTION_DDOT":0},{"OBJECT_NAME":"EXPRESS AMU-7","OBJECT_ID":"2021-123A","EPOCH":"2026-04-03T08:22:56.182368","MEAN_MOTION":1.00272584,"ECCENTRICITY":1.255e-5,"INCLINATION":0.0145,"RA_OF_ASC_NODE":249.0261,"ARG_OF_PERICENTER":119.3954,"MEAN_ANOMALY":93.9924,"EPHEMERIS_TYPE":0,"CLASSIFICATION_TYPE":"U","NORAD_CAT_ID":50001,"ELEMENT_SET_NO":999,"REV_AT_EPOCH":1579,"BSTAR":0,"MEAN_MOTION_DOT":-2.45e-6,"MEAN_MOTION_DDOT":0},{"OBJECT_NAME":"EXPRESS AMU-3","OBJECT_ID":"2021-123B","EPOCH":"2026-04-05T04:13:59.429856","MEAN_MOTION":1.0027193,"ECCENTRICITY":5.199e-5,"INCLINATION":0.0168,"RA_OF_ASC_NODE":241.8049,"ARG_OF_PERICENTER":27.092,"MEAN_ANOMALY":91.0908,"EPHEMERIS_TYPE":0,"CLASSIFICATION_TYPE":"U","NORAD_CAT_ID":50002,"ELEMENT_SET_NO":999,"REV_AT_EPOCH":630,"BSTAR":0,"MEAN_MOTION_DOT":-3.2e-6,"MEAN_MOTION_DDOT":0},{"OBJECT_NAME":"TIANLIAN 2-02","OBJECT_ID":"2021-124A","EPOCH":"2026-04-05T13:33:31.407840","MEAN_MOTION":1.00273156,"ECCENTRICITY":0.00034956,"INCLINATION":0.6139,"RA_OF_ASC_NODE":87.2959,"ARG_OF_PERICENTER":221.9078,"MEAN_ANOMALY":259.002,"EPHEMERIS_TYPE":0,"CLASSIFICATION_TYPE":"U","NORAD_CAT_ID":50005,"ELEMENT_SET_NO":999,"REV_AT_EPOCH":1589,"BSTAR":0,"MEAN_MOTION_DOT":-1.2e-7,"MEAN_MOTION_DDOT":0},{"OBJECT_NAME":"TURKSAT 5B","OBJECT_ID":"2021-126A","EPOCH":"2026-04-05T14:46:37.755264","MEAN_MOTION":1.00271914,"ECCENTRICITY":0.00050717,"INCLINATION":0.0795,"RA_OF_ASC_NODE":330.9058,"ARG_OF_PERICENTER":11.0761,"MEAN_ANOMALY":115.5839,"EPHEMERIS_TYPE":0,"CLASSIFICATION_TYPE":"U","NORAD_CAT_ID":50212,"ELEMENT_SET_NO":999,"REV_AT_EPOCH":1557,"BSTAR":0,"MEAN_MOTION_DOT":1.48e-6,"MEAN_MOTION_DDOT":0},{"OBJECT_NAME":"INMARSAT 6-F1","OBJECT_ID":"2021-128A","EPOCH":"2026-04-05T14:27:10.092960","MEAN_MOTION":1.00270953,"ECCENTRICITY":2.205e-5,"INCLINATION":0.0168,"RA_OF_ASC_NODE":223.0582,"ARG_OF_PERICENTER":219.0804,"MEAN_ANOMALY":52.3047,"EPHEMERIS_TYPE":0,"CLASSIFICATION_TYPE":"U","NORAD_CAT_ID":50319,"ELEMENT_SET_NO":999,"REV_AT_EPOCH":1553,"BSTAR":0,"MEAN_MOTION_DOT":-1.7e-6,"MEAN_MOTION_DDOT":0},{"OBJECT_NAME":"SHIYAN-12 01 (SY-12 01)","OBJECT_ID":"2021-129A","EPOCH":"2026-04-03T17:05:11.604768","MEAN_MOTION":1.00080844,"ECCENTRICITY":0.000341,"INCLINATION":3.4828,"RA_OF_ASC_NODE":80.9059,"ARG_OF_PERICENTER":263.7414,"MEAN_ANOMALY":222.3716,"EPHEMERIS_TYPE":0,"CLASSIFICATION_TYPE":"U","NORAD_CAT_ID":50321,"ELEMENT_SET_NO":999,"REV_AT_EPOCH":1575,"BSTAR":0,"MEAN_MOTION_DOT":-3.56e-6,"MEAN_MOTION_DDOT":0},{"OBJECT_NAME":"SHIYAN-12 02 (SY-12 02)","OBJECT_ID":"2021-129B","EPOCH":"2026-04-03T16:24:24.151104","MEAN_MOTION":1.00462099,"ECCENTRICITY":4.67e-5,"INCLINATION":3.4829,"RA_OF_ASC_NODE":80.9202,"ARG_OF_PERICENTER":11.886,"MEAN_ANOMALY":18.2553,"EPHEMERIS_TYPE":0,"CLASSIFICATION_TYPE":"U","NORAD_CAT_ID":50322,"ELEMENT_SET_NO":999,"REV_AT_EPOCH":1575,"BSTAR":0,"MEAN_MOTION_DOT":1.54e-6,"MEAN_MOTION_DDOT":0},{"OBJECT_NAME":"TJS-9","OBJECT_ID":"2021-135A","EPOCH":"2026-04-05T13:23:51.223200","MEAN_MOTION":1.00272624,"ECCENTRICITY":0.00039525,"INCLINATION":0.0656,"RA_OF_ASC_NODE":279.1082,"ARG_OF_PERICENTER":148.2822,"MEAN_ANOMALY":104.6692,"EPHEMERIS_TYPE":0,"CLASSIFICATION_TYPE":"U","NORAD_CAT_ID":50574,"ELEMENT_SET_NO":999,"REV_AT_EPOCH":1570,"BSTAR":0,"MEAN_MOTION_DOT":-2.97e-6,"MEAN_MOTION_DDOT":0},{"OBJECT_NAME":"GOES 18","OBJECT_ID":"2022-021A","EPOCH":"2026-04-05T12:45:51.592032","MEAN_MOTION":1.00270314,"ECCENTRICITY":6.374e-5,"INCLINATION":0.0483,"RA_OF_ASC_NODE":40.0599,"ARG_OF_PERICENTER":35.3456,"MEAN_ANOMALY":172.8934,"EPHEMERIS_TYPE":0,"CLASSIFICATION_TYPE":"U","NORAD_CAT_ID":51850,"ELEMENT_SET_NO":999,"REV_AT_EPOCH":586,"BSTAR":0,"MEAN_MOTION_DOT":9.8e-7,"MEAN_MOTION_DDOT":0},{"OBJECT_NAME":"ZHONGXING-6D","OBJECT_ID":"2022-038A","EPOCH":"2026-04-02T02:57:52.116768","MEAN_MOTION":1.00268552,"ECCENTRICITY":0.00019772,"INCLINATION":0.0419,"RA_OF_ASC_NODE":250.5407,"ARG_OF_PERICENTER":80.9664,"MEAN_ANOMALY":28.4685,"EPHEMERIS_TYPE":0,"CLASSIFICATION_TYPE":"U","NORAD_CAT_ID":52255,"ELEMENT_SET_NO":999,"REV_AT_EPOCH":1466,"BSTAR":0,"MEAN_MOTION_DOT":-3.61e-6,"MEAN_MOTION_DDOT":0},{"OBJECT_NAME":"NILESAT 301","OBJECT_ID":"2022-061A","EPOCH":"2026-04-05T05:52:02.773920","MEAN_MOTION":1.00271416,"ECCENTRICITY":0.0006045,"INCLINATION":0.0629,"RA_OF_ASC_NODE":15.7842,"ARG_OF_PERICENTER":355.07,"MEAN_ANOMALY":263.7154,"EPHEMERIS_TYPE":0,"CLASSIFICATION_TYPE":"U","NORAD_CAT_ID":52817,"ELEMENT_SET_NO":999,"REV_AT_EPOCH":1400,"BSTAR":0,"MEAN_MOTION_DOT":-5.7e-7,"MEAN_MOTION_DDOT":0},{"OBJECT_NAME":"CMS-02 (GSAT 24)","OBJECT_ID":"2022-067A","EPOCH":"2026-04-05T13:21:52.569216","MEAN_MOTION":1.00272866,"ECCENTRICITY":0.00018702,"INCLINATION":0.0499,"RA_OF_ASC_NODE":94.5678,"ARG_OF_PERICENTER":238.4519,"MEAN_ANOMALY":144.3006,"EPHEMERIS_TYPE":0,"CLASSIFICATION_TYPE":"U","NORAD_CAT_ID":52903,"ELEMENT_SET_NO":999,"REV_AT_EPOCH":1388,"BSTAR":0,"MEAN_MOTION_DOT":-1.63e-6,"MEAN_MOTION_DDOT":0},{"OBJECT_NAME":"MEASAT 3D","OBJECT_ID":"2022-067B","EPOCH":"2026-04-05T14:08:50.159616","MEAN_MOTION":1.00273334,"ECCENTRICITY":0.00027523,"INCLINATION":0.0428,"RA_OF_ASC_NODE":329.3922,"ARG_OF_PERICENTER":24.9188,"MEAN_ANOMALY":143.2827,"EPHEMERIS_TYPE":0,"CLASSIFICATION_TYPE":"U","NORAD_CAT_ID":52904,"ELEMENT_SET_NO":999,"REV_AT_EPOCH":1392,"BSTAR":0,"MEAN_MOTION_DOT":-2.4e-6,"MEAN_MOTION_DDOT":0},{"OBJECT_NAME":"SES-22","OBJECT_ID":"2022-071A","EPOCH":"2026-04-05T12:44:38.685120","MEAN_MOTION":1.00270558,"ECCENTRICITY":0.0001259,"INCLINATION":0.0152,"RA_OF_ASC_NODE":222.3561,"ARG_OF_PERICENTER":164.3417,"MEAN_ANOMALY":219.2774,"EPHEMERIS_TYPE":0,"CLASSIFICATION_TYPE":"U","NORAD_CAT_ID":52933,"ELEMENT_SET_NO":999,"REV_AT_EPOCH":679,"BSTAR":0,"MEAN_MOTION_DOT":0,"MEAN_MOTION_DDOT":0}]
